QIANFAN-17              
1 60395U 24140S   25209.78780188  .00000127  00000+0  17793-3 0  9998
2 60395  88.9858 313.5685 0013506 235.6897 124.2977 13.50959956 48799
QIANFAN-18              
1 60396U 24140T   25209.84139777  .00000145  00000+0  20659-3 0  9993
2 60396  88.9850 313.1073 0013387 216.4084 143.6158 13.50955477 49039
QIANFAN-19              
1 61552U 24185A   25209.60022926  .00000399  00000+0  20199-3 0  9998
2 61552  88.9811  93.6752 0008714  39.1062 321.0753 14.14112148 50282
QIANFAN-20              
1 61553U 24185B   25209.59982022  .00000330  00000+0  18349-3 0  9998
2 61553  88.9811  93.8606 0008151  66.8407 293.3635 14.08664264 50181
QIANFAN-21              
1 61554U 24185C   25209.78852278  .00000577  00000+0  25258-3 0  9999
2 61554  88.9725  93.0397 0013162  87.4075 272.8622 14.22356836 50506
QIANFAN-22              
1 61555U 24185D   25209.57443637  .00000213  00000+0  17276-3 0  9990
2 61555  88.9797  94.2926 0008869  60.4286 299.7768 13.86234912 49933
QIANFAN-23              
1 61556U 24185E   25209.62658080  .00000430  00000+0  21064-3 0  9998
2 61556  88.9803  93.5452 0009855  47.8543 312.3481 14.16082401 50348
QIANFAN-24              
1 61557U 24185F   25209.90688909  .00000512  00000+0  21867-3 0  9995
2 61557  88.9784  93.1421 0011148  35.4835 324.7096 14.23560010 50551
